{
  "type": "FeatureCollection",
  "features": [
    {
      "type": "Feature",
      "properties": {
        "norad_id": 39554,
        "name": "COSMOS 2251 DEB",
        "group": "cosmos-2251-debris",
        "lat": 60.83248448219571,
        "lon": 38.043244702767836,
        "alt_km": 523.8015372603822,
        "timestamp": "2025-12-20T07:33:51.211190+00:00",
        "meta_object_name": "COSMOS 2251 DEB",
        "meta_object_id": "1993-036BUL",
        "meta_epoch": "2025-12-10T06:12:03.924864",
        "meta_mean_motion": 15.10130993,
        "meta_eccentricity": 0.0002993,
        "meta_inclination": 74.0187,
        "meta_ra_of_asc_node": 269.7383,
        "meta_arg_of_pericenter": 74.7531,
        "meta_mean_anomaly": 81.5927,
        "meta_ephemeris_type": 0,
        "meta_classification_type": "U",
        "meta_norad_cat_id": 39554,
        "meta_element_set_no": 999,
        "meta_rev_at_epoch": 64347,
        "meta_bstar": 0.0046896,
        "meta_mean_motion_dot": 0.000773,
        "meta_mean_motion_ddot": 0,
        "tle_line1": "1 39554U 93036BUL 25344.25837876  .00077300  00000+0  46896-2 0  9992",
        "tle_line2": "2 39554  74.0187 269.7383 0002993  74.7531  81.5927 15.10130993643471"
      },
      "geometry": {
        "type": "Point",
        "coordinates": [
          38.043244702767836,
          60.83248448219571
        ]
      }
    },
    {
      "type": "Feature",
      "properties": {
        "norad_id": 39583,
        "name": "COSMOS 2251 DEB",
        "group": "cosmos-2251-debris",
        "lat": -34.362887190257744,
        "lon": 64.02931672565538,
        "alt_km": 756.7793758166063,
        "timestamp": "2025-12-20T07:33:51.211200+00:00",
        "meta_object_name": "COSMOS 2251 DEB",
        "meta_object_id": "1993-036BUN",
        "meta_epoch": "2025-12-18T10:11:13.909920",
        "meta_mean_motion": 14.60542257,
        "meta_eccentricity": 0.01369227,
        "meta_inclination": 73.9324,
        "meta_ra_of_asc_node": 236.2973,
        "meta_arg_of_pericenter": 348.5451,
        "meta_mean_anomaly": 11.2605,
        "meta_ephemeris_type": 0,
        "meta_classification_type": "U",
        "meta_norad_cat_id": 39583,
        "meta_element_set_no": 999,
        "meta_rev_at_epoch": 61862,
        "meta_bstar": 0.001412125,
        "meta_mean_motion_dot": 7.803e-05,
        "meta_mean_motion_ddot": 0,
        "tle_line1": "1 39583U 93036BUN 25352.42446655  .00007803  00000+0  14121-2 0  9990",
        "tle_line2": "2 39583  73.9324 236.2973 0136922 348.5451  11.2605 14.60542257618627"
      },
      "geometry": {
        "type": "Point",
        "coordinates": [
          64.02931672565538,
          -34.362887190257744
        ]
      }
    },
    {
      "type": "Feature",
      "properties": {
        "norad_id": 39585,
        "name": "COSMOS 2251 DEB",
        "group": "cosmos-2251-debris",
        "lat": -8.171054811885815,
        "lon": -75.45711247283317,
        "alt_km": 673.6636266698715,
        "timestamp": "2025-12-20T07:33:51.211210+00:00",
        "meta_object_name": "COSMOS 2251 DEB",
        "meta_object_id": "1993-036BUQ",
        "meta_epoch": "2025-12-17T13:45:47.587680",
        "meta_mean_motion": 14.58681164,
        "meta_eccentricity": 0.00655713,
        "meta_inclination": 74.0421,
        "meta_ra_of_asc_node": 292.1145,
        "meta_arg_of_pericenter": 51.6529,
        "meta_mean_anomaly": 309.0503,
        "meta_ephemeris_type": 0,
        "meta_classification_type": "U",
        "meta_norad_cat_id": 39585,
        "meta_element_set_no": 999,
        "meta_rev_at_epoch": 62591,
        "meta_bstar": 0.00024435975,
        "meta_mean_motion_dot": 1.143e-05,
        "meta_mean_motion_ddot": 0,
        "tle_line1": "1 39585U 93036BUQ 25351.57346745  .00001143  00000+0  24436-3 0  9998",
        "tle_line2": "2 39585  74.0421 292.1145 0065571  51.6529 309.0503 14.58681164625913"
      },
      "geometry": {
        "type": "Point",
        "coordinates": [
          -75.45711247283317,
          -8.171054811885815
        ]
      }
    },
    {
      "type": "Feature",
      "properties": {
        "norad_id": 39586,
        "name": "COSMOS 2251 DEB",
        "group": "cosmos-2251-debris",
        "lat": -25.33922566755997,
        "lon": 42.45454129563947,
        "alt_km": 882.6713467111558,
        "timestamp": "2025-12-20T07:33:51.211220+00:00",
        "meta_object_name": "COSMOS 2251 DEB",
        "meta_object_id": "1993-036BUR",
        "meta_epoch": "2025-12-15T23:50:08.053728",
        "meta_mean_motion": 14.21232237,
        "meta_eccentricity": 0.01008868,
        "meta_inclination": 74.0082,
        "meta_ra_of_asc_node": 222.4068,
        "meta_arg_of_pericenter": 356.2296,
        "meta_mean_anomaly": 66.1426,
        "meta_ephemeris_type": 0,
        "meta_classification_type": "U",
        "meta_norad_cat_id": 39586,
        "meta_element_set_no": 999,
        "meta_rev_at_epoch": 61018,
        "meta_bstar": 0.00043436803,
        "meta_mean_motion_dot": 9.7e-06,
        "meta_mean_motion_ddot": 0,
        "tle_line1": "1 39586U 93036BUR 25349.99314877  .00000970  00000+0  43437-3 0  9992",
        "tle_line2": "2 39586  74.0082 222.4068 0100886 356.2296  66.1426 14.21232237610182"
      },
      "geometry": {
        "type": "Point",
        "coordinates": [
          42.45454129563947,
          -25.33922566755997
        ]
      }
    },
    {
      "type": "Feature",
      "properties": {
        "norad_id": 39591,
        "name": "COSMOS 2251 DEB",
        "group": "cosmos-2251-debris",
        "lat": -59.56394090433108,
        "lon": -156.47926685963384,
        "alt_km": 745.1880294752,
        "timestamp": "2025-12-20T07:33:51.211230+00:00",
        "meta_object_name": "COSMOS 2251 DEB",
        "meta_object_id": "1993-036BUW",
        "meta_epoch": "2025-12-19T09:05:27.177792",
        "meta_mean_motion": 14.41824759,
        "meta_eccentricity": 0.002936,
        "meta_inclination": 74.0196,
        "meta_ra_of_asc_node": 234.4485,
        "meta_arg_of_pericenter": 346.2019,
        "meta_mean_anomaly": 131.9176,
        "meta_ephemeris_type": 0,
        "meta_classification_type": "U",
        "meta_norad_cat_id": 39591,
        "meta_element_set_no": 999,
        "meta_rev_at_epoch": 61872,
        "meta_bstar": 0.0001972,
        "meta_mean_motion_dot": 6.21e-06,
        "meta_mean_motion_ddot": 0,
        "tle_line1": "1 39591U 93036BUW 25353.37878678  .00000621  00000+0  19720-3 0  9990",
        "tle_line2": "2 39591  74.0196 234.4485 0029360 346.2019 131.9176 14.41824759618728"
      },
      "geometry": {
        "type": "Point",
        "coordinates": [
          -156.47926685963384,
          -59.56394090433108
        ]
      }
    },
    {
      "type": "Feature",
      "properties": {
        "norad_id": 40218,
        "name": "COSMOS 2251 DEB",
        "group": "cosmos-2251-debris",
        "lat": -4.617952837875135,
        "lon": 56.11705753102826,
        "alt_km": 764.3465707636851,
        "timestamp": "2025-12-20T07:33:51.211239+00:00",
        "meta_object_name": "COSMOS 2251 DEB",
        "meta_object_id": "1993-036BUX",
        "meta_epoch": "2025-12-14T10:48:31.251744",
        "meta_mean_motion": 14.41597705,
        "meta_eccentricity": 0.00168728,
        "meta_inclination": 74.0298,
        "meta_ra_of_asc_node": 245.6562,
        "meta_arg_of_pericenter": 328.6,
        "meta_mean_anomaly": 31.4147,
        "meta_ephemeris_type": 0,
        "meta_classification_type": "U",
        "meta_norad_cat_id": 40218,
        "meta_element_set_no": 999,
        "meta_rev_at_epoch": 58886,
        "meta_bstar": 0.00046023204,
        "meta_mean_motion_dot": 1.474e-05,
        "meta_mean_motion_ddot": 0,
        "tle_line1": "1 40218U 93036BUX 25348.45036171  .00001474  00000+0  46023-3 0  9998",
        "tle_line2": "2 40218  74.0298 245.6562 0016872 328.6000  31.4147 14.41597705588868"
      },
      "geometry": {
        "type": "Point",
        "coordinates": [
          56.11705753102826,
          -4.617952837875135
        ]
      }
    },
    {
      "type": "Feature",
      "properties": {
        "norad_id": 40223,
        "name": "COSMOS 2251 DEB",
        "group": "cosmos-2251-debris",
        "lat": 51.823635204316226,
        "lon": 94.61677089649723,
        "alt_km": 555.937264592244,
        "timestamp": "2025-12-20T07:33:51.211249+00:00",
        "meta_object_name": "COSMOS 2251 DEB",
        "meta_object_id": "1993-036BVC",
        "meta_epoch": "2025-12-16T06:05:42.901728",
        "meta_mean_motion": 15.04017245,
        "meta_eccentricity": 0.00151313,
        "meta_inclination": 73.9375,
        "meta_ra_of_asc_node": 81.4737,
        "meta_arg_of_pericenter": 287.2028,
        "meta_mean_anomaly": 105.0934,
        "meta_ephemeris_type": 0,
        "meta_classification_type": "U",
        "meta_norad_cat_id": 40223,
        "meta_element_set_no": 999,
        "meta_rev_at_epoch": 59427,
        "meta_bstar": 0.0031787319,
        "meta_mean_motion_dot": 0.00044299,
        "meta_mean_motion_ddot": 0,
        "tle_line1": "1 40223U 93036BVC 25350.25396877  .00044299  00000+0  31787-2 0  9999",
        "tle_line2": "2 40223  73.9375  81.4737 0015131 287.2028 105.0934 15.04017245594275"
      },
      "geometry": {
        "type": "Point",
        "coordinates": [
          94.61677089649723,
          51.823635204316226
        ]
      }
    }
  ]
}